COSMOS 2426 (717)       
1 29671U 06062B   19200.27432662 -.00000000  00000-0  10000-3 0  9998
2 29671  65.1096 279.2095 0018755 168.0411 192.0596  2.13102963 97785
COSMOS 2433 (720)       
1 32275U 07052A   19201.40872691 -.00000048  00000-0  10000-3 0  9990
2 32275  65.8634  40.0281 0000792 230.5527 256.3951  2.13104323 91314
COSMOS 2432 (719)       
1 32276U 07052B   19200.77379429 -.00000049  00000-0  10000-3 0  9992
2 32276  65.8756  40.1336 0010137 342.1711 328.7108  2.13103663 91292
COSMOS 2434 (721)       
1 32393U 07065A   19201.37276282 -.00000004  00000-0  00000+0 0  9992
2 32393  64.7052 277.8522 0003593 129.9412 216.8577  2.13103013 90017
COSMOS 2436 (723)       
1 32395U 07065C   19200.51689478 -.00000000  00000-0  10000-3 0  9995
2 32395  64.7163 277.9362 0014690 357.2771 105.3702  2.13104388 89936
COSMOS 2456 (730)       
1 36111U 09070A   19201.09465787  .00000031  00000-0  00000+0 0  9990
2 36111  64.2049 157.4995 0006287 305.1086   1.4458  2.13102928 74679
COSMOS 2457 (733)       
1 36112U 09070B   19200.42036370  .00000023  00000-0  00000+0 0  9990
2 36112  64.1870 157.4234 0005051 192.9094  81.2584  2.13101490 74664
COSMOS 2459 (731)       
1 36400U 10007A   19201.43912554 -.00000049  00000-0  10000-3 0  9995
2 36400  65.7663  39.0410 0025820 355.3313  10.6662  2.13102020 73041
COSMOS 2461 (735)       
1 36401U 10007B   19201.38417253 -.00000049  00000-0  10000-3 0  9996
2 36401  65.7645  39.0139 0008952  68.7449 165.6378  2.13102100 73035
COSMOS 2460 (732)       
1 36402U 10007C   19201.21026447 -.00000050  00000-0  10000-3 0  9992
2 36402  65.7574  38.9829 0002069  81.8360  58.9244  2.13101468 73034
COSMOS 2464 (736)       
1 37139U 10041C   19200.58812896 -.00000001  00000-0  00000+0 0  9999
2 37139  64.3081 277.4865 0023722  11.1189 319.7803  2.13100696 69085
COSMOS 2474 (742)       
1 37829U 11055A   19201.41363779  .00000036  00000-0  00000+0 0  9992
2 37829  64.5253 158.3742 0010602 252.5777 154.9705  2.13101815 60683
COSMOS 2476 (744)       
1 37867U 11064A   19200.66043329  .00000027  00000-0  00000+0 0  9996
2 37867  64.5054 158.4511 0020566 243.6889 352.1837  2.13101930 60017
COSMOS 2477 (745)       
1 37868U 11064B   19200.82757645  .00000029  00000-0  00000+0 0  9990
2 37868  64.5148 158.4963 0018458 245.4632 297.2987  2.13101760 59975
COSMOS 2475 (743)       
1 37869U 11064C   19200.55409084  .00000026  00000-0  00000-0 0  9990
2 37869  64.5209 158.5056 0022984 265.8175  24.2433  2.13102119 59978
COSMOS 2485 (747)       
1 39155U 13019A   19200.69488168  .00000028  00000-0  00000-0 0  9999
2 39155  64.6742 158.6461 0021144 239.4445  67.5665  2.13101942 48480
COSMOS 2492 (754)       
1 39620U 14012A   19200.66188468 -.00000051  00000-0  10000-3 0  9998
2 39620  65.6402  38.8347 0013101 335.1183 341.6581  2.13103239 41432
COSMOS 2500 (755)       
1 40001U 14032A   19200.46748002 -.00000051  00000-0  00000-0 0  9995
2 40001  65.5809  38.7784 0005344 187.8243 201.1849  2.13102647 39650
COSMOS 2501 (702K)      
1 40315U 14075A   19201.02865168 -.00000004  00000-0  00000+0 0  9993
2 40315  64.0290 278.5406 0017075 207.0699  50.1434  2.13098723 36068
COSMOS 2514 (751)       
1 41330U 16008A   19199.73703300 -.00000052  00000-0  00000-0 0  9996
2 41330  65.3854  38.7567 0008238 205.2875 165.0876  2.13103045 26808
COSMOS 2516 (753)       
1 41554U 16032A   19200.68696126 -.00000002  00000-0  00000+0 0  9999
2 41554  64.2510 278.5272 0013785 216.5273  53.1780  2.13101689 24429
COSMOS 2522 (752)       
1 42939U 17055A   19201.38639939 -.00000005  00000-0  00000+0 0  9993
2 42939  64.4815 278.5854 0008385 239.7718  73.0138  2.13101851 14196
COSMOS 2527 (756)       
1 43508U 18053A   19201.29711446  .00000035  00000-0  00000+0 0  9991
2 43508  64.8383 158.4043 0008940 243.6073  31.9611  2.13102596  8485
COSMOS 2529 (757)       
1 43687U 18086A   19201.03659588 -.00000003  00000-0  00000+0 0  9991
2 43687  64.6955 278.6268 0010272 264.3811  95.7555  2.13102027  5505
COSMOS 2534 (758)       
1 44299U 19030A   19200.69488168 -.00000002  00000-0  00000-0 0  9996
2 44299  64.7641 278.4259 0013167 283.9508 309.2524  2.13101954  1134
